{"spkid": "50437828", "covariance": {"labels": ["e", "q", "tp", "node", "peri", "i"], "data": [["1.121612078506714E-13", "-1.057356387658495E-13", "-7.453951006790874E-13", "-6.294157367388509E-12", "1.97180397724708E-12", "-1.057350464307418E-12"], ["-1.057356387658495E-13", "9.96785684415731E-14", "6.980565239034323E-13", "5.944005338098805E-12", "-1.872273772006362E-12", "9.992452245408028E-13"], ["-7.453951006790874E-13", "6.980565239034323E-13", "6.319068636770639E-10", "1.157356989719761E-9", "-4.979001468735001E-10", "2.799787730197625E-10"], ["-6.294157367388509E-12", "5.944005338098805E-12", "1.157356989719761E-9", "7.071510718323125E-9", "-5.685520218160108E-9", "8.316439923207799E-10"], ["1.97180397724708E-12", "-1.872273772006362E-12", "-4.979001468735001E-10", "-5.685520218160108E-9", "5.127563885753747E-9", "-5.192228321635696E-10"], ["-1.057350464307418E-12", "9.992452245408028E-13", "2.799787730197625E-10", "8.316439923207799E-10", "-5.192228321635696E-10", "2.792999343638588E-10"]], "elements": [{"label": "e", "name": "e", "sigma": 3.34904774302594e-07, "units": null, "value": ".3881366425247459", "title": "eccentricity"}, {"value": ".5642862411950552", "title": "perihelion distance", "units": "au", "name": "q", "sigma": 3.15719129039678e-07, "label": "q"}, {"sigma": 2.51377577296994e-05, "name": "tp", "value": "2456315.659964488320", "title": "time of perihelion passage", "units": "TDB", "label": "tp"}, {"name": "om", "sigma": 8.40922750216875e-05, "units": "deg", "title": "longitude of the ascending node", "value": "37.05077064365721", "label": "node"}, {"label": "peri", "sigma": 7.1607010032215e-05, "name": "w", "units": "deg", "title": "argument of perihelion", "value": "235.3924529134428"}, {"name": "i", "sigma": 1.67122689771275e-05, "units": "deg", "title": "inclination", "value": "4.194711976724103", "label": "i"}], "epoch": "2456389.5"}, "elements": [{"name": "e", "sigma": "3.3652E-7", "title": "eccentricity", "value": ".3879680668749012", "units": null, "label": "e"}, {"sigma": "5.9349E-9", "name": "a", "units": "au", "title": "semi-major axis", "value": ".9215634750494044", "label": "a"}, {"title": "perihelion distance", "value": ".5640262751319708", "units": "au", "name": "q", "sigma": "3.119E-7", "label": "q"}, {"label": "i", "sigma": "1.6502E-5", "name": "i", "units": "deg", "title": "inclination; angle with respect to x-y ecliptic plane", "value": "4.169009263415469"}, {"label": "node", "units": "deg", "value": "36.99728732447992", "title": "longitude of the ascending node", "sigma": "8.5549E-5", "name": "om"}, {"units": "deg", "value": "235.3652550492948", "title": "argument of perihelion", "name": "w", "sigma": "7.3486E-5", "label": "peri"}, {"sigma": "7.192E-5", "name": "ma", "title": "mean anomaly", "value": "40.01400147952444", "units": "deg", "label": "M"}, {"units": "TDB", "value": "2461164.583352648234", "title": "time of perihelion passage", "sigma": "6.4245E-5", "name": "tp", "label": "tp"}, {"sigma": "3.1215E-6", "name": "per", "value": "323.1367163629512", "title": "sidereal orbital period", "units": "d", "label": "period"}, {"label": "n", "sigma": "1.0762E-8", "name": "n", "units": "deg/d", "value": "1.114079526622544", "title": "mean motion"}, {"title": "aphelion distance", "value": "1.279100674966838", "units": "au", "sigma": "8.2375E-9", "name": "ad", "label": "Q"}], "epoch": "2461200.5"}